IRIDIUM 36 [-]          
1 24967U 97056C   24115.56788844  .00001300  00000+0  43456-3 0  9996
2 24967  86.3993 348.8096 0002029  87.3200 272.8229 14.36747910392096
IRIDIUM 39 [-]          
1 25042U 97069D   24115.24301683  .00002052  00000+0  54825-3 0  9999
2 25042  86.3969  30.6282 0015950 264.3034  95.6351 14.47871874388312
IRIDIUM 38 [-]          
1 25043U 97069E   24115.31381815  .00001692  00000+0  56251-3 0  9997
2 25043  86.3985  49.2881 0003654  62.8714 297.2855 14.37197436385776
IRIDIUM 42 [-]          
1 25077U 97077A   24115.37266127  .00001598  00000+0  54910-3 0  9992
2 25077  86.3978  54.9199 0002782  78.0193 282.1315 14.35503784381091
IRIDIUM 44 [-]          
1 25078U 97077B   24115.26783034  .00001618  00000+0  51473-3 0  9996
2 25078  86.3996  38.0156 0002039  36.0790 324.0546 14.39333469383426
IRIDIUM 45 [-]          
1 25104U 97082A   24115.41061647  .00025655  00000+0  14610-2 0  9996
2 25104  86.3740 247.4575 0164897  75.3649 286.5802 15.01792084388787
IRIDIUM 24 [-]          
1 25105U 97082B   24115.49202378  .00001713  00000+0  52573-3 0  9993
2 25105  86.3890 257.5951 0012283  30.4354 329.7556 14.41101893382897
IRIDIUM 51 [-]          
1 25262U 98018A   24115.44754670  .00023501  00000+0  11225-2 0  9996
2 25262  86.3961 257.4168 0149932  21.3548 339.3855 15.09417457383302
